start=new Date('2022-10-04T00:00:00.000Z').valueOf();
sats=[{"CLASSIFICATION_TYPE":"U","ARG_OF_PERICENTER":"73.8987","BSTAR":"0.00037080000000","LAUNCH_DATE":"2021-05-04","MEAN_MOTION_DOT":"0.00005247","ECCENTRICITY":"0.00013740","COUNTRY_CODE":"US","MEAN_MOTION_DDOT":"0.0000000000000","MEAN_ANOMALY":"286.2154","INCLINATION":"53.0532","CENTER_NAME":"EARTH","REF_FRAME":"TEME","FILE":"3590585","APOAPSIS":"548.132","RA_OF_ASC_NODE":"226.1849","REV_AT_EPOCH":"7818","ELEMENT_SET_NO":"999","GP_ID":"214117149","OBJECT_NAME":"STARLINK-2613","RCS_SIZE":"LARGE","MEAN_MOTION":"15.06410788","TIME_SYSTEM":"UTC","PERIAPSIS":"546.229","SEMIMAJOR_AXIS":"6925.315","DECAY_DATE":null,"OBJECT_ID":"2021-038A","TLE_LINE2":"2 48353  53.0532 226.1849 0001374  73.8987 286.2154 15.06410788 78184","NORAD_CAT_ID":"48353","EPOCH":"2022-10-03T18:33:53.828352","PERIOD":"95.591","SITE":"AFETR","TLE_LINE1":"1 48353U 21038A   22276.77353968  .00005247  00000-0  37080-3 0  9993","MEAN_ELEMENT_THEORY":"SGP4","OBJECT_TYPE":"PAYLOAD","EPHEMERIS_TYPE":"0"},{"EPHEMERIS_TYPE":"0","OBJECT_TYPE":"PAYLOAD","MEAN_ELEMENT_THEORY":"SGP4","TLE_LINE1":"1 48354U 21038B   22276.23908608  .00000993  00000-0  85548-4 0  9998","PERIOD":"95.592","SITE":"AFETR","NORAD_CAT_ID":"48354","EPOCH":"2022-10-03T05:44:17.037312","TLE_LINE2":"2 48354  53.0532 228.5879 0001435  80.5380 279.5771 15.06396209 78107","OBJECT_ID":"2021-038B","DECAY_DATE":null,"PERIAPSIS":"546.231","SEMIMAJOR_AXIS":"6925.360","TIME_SYSTEM":"UTC","MEAN_MOTION":"15.06396209","OBJECT_NAME":"STARLINK-2674","GP_ID":"214087140","RCS_SIZE":"LARGE","REV_AT_EPOCH":"7810","ELEMENT_SET_NO":"999","FILE":"3590320","RA_OF_ASC_NODE":"228.5879","APOAPSIS":"548.219","REF_FRAME":"TEME","CENTER_NAME":"EARTH","INCLINATION":"53.0532","MEAN_ANOMALY":"279.5771","MEAN_MOTION_DDOT":"0.0000000000000","COUNTRY_CODE":"US","LAUNCH_DATE":"2021-05-04","ECCENTRICITY":"0.00014350","MEAN_MOTION_DOT":"0.00000993","BSTAR":"0.00008554800000","ARG_OF_PERICENTER":"80.5380","CLASSIFICATION_TYPE":"U"},{"SEMIMAJOR_AXIS":"6925.263","PERIAPSIS":"545.834","TIME_SYSTEM":"UTC","MEAN_MOTION":"15.06427819","RCS_SIZE":"LARGE","OBJECT_NAME":"STARLINK-2635","GP_ID":"214118650","ELEMENT_SET_NO":"999","REV_AT_EPOCH":"7819","APOAPSIS":"548.423","RA_OF_ASC_NODE":"225.9217","FILE":"3590585","REF_FRAME":"TEME","EPHEMERIS_TYPE":"0","OBJECT_TYPE":"PAYLOAD","MEAN_ELEMENT_THEORY":"SGP4","TLE_LINE1":"1 48355U 21038C   22276.83251500  .00016438  00000-0  11190-2 0  9998","SITE":"AFETR","PERIOD":"95.590","NORAD_CAT_ID":"48355","EPOCH":"2022-10-03T19:58:49.296000","TLE_LINE2":"2 48355  53.0540 225.9217 0001869  55.7407 304.3759 15.06427819 78193","OBJECT_ID":"2021-038C","DECAY_DATE":null,"COUNTRY_CODE":"US","MEAN_MOTION_DOT":"0.00016438","LAUNCH_DATE":"2021-05-04","ECCENTRICITY":"0.00018690","BSTAR":"0.00111900000000","ARG_OF_PERICENTER":"55.7407","CLASSIFICATION_TYPE":"U","CENTER_NAME":"EARTH","INCLINATION":"53.0540","MEAN_ANOMALY":"304.3759","MEAN_MOTION_DDOT":"0.0000000000000"},{"PERIOD":"95.592","SITE":"AFETR","TLE_LINE1":"1 48356U 21038D   22276.36440379  .00002234  00000-0  16882-3 0  9994","MEAN_ELEMENT_THEORY":"SGP4","OBJECT_TYPE":"PAYLOAD","EPHEMERIS_TYPE":"0","DECAY_DATE":null,"OBJECT_ID":"2021-038D","TLE_LINE2":"2 48356  53.0526 228.0034 0001544  73.3755 286.7403 15.06406497 78122","NORAD_CAT_ID":"48356","EPOCH":"2022-10-03T08:44:44.487456","OBJECT_NAME":"STARLINK-2637","GP_ID":"214086141","RCS_SIZE":"LARGE","MEAN_MOTION":"15.06406497","TIME_SYSTEM":"UTC","PERIAPSIS":"546.124","SEMIMAJOR_AXIS":"6925.329","REF_FRAME":"TEME","FILE":"3590320","APOAPSIS":"548.263","RA_OF_ASC_NODE":"228.0034","REV_AT_EPOCH":"7812","ELEMENT_SET_NO":"999","INCLINATION":"53.0526","CENTER_NAME":"EARTH","MEAN_MOTION_DDOT":"0.0000000000000","MEAN_ANOMALY":"286.7403","LAUNCH_DATE":"2021-05-04","ECCENTRICITY":"0.00015440","MEAN_MOTION_DOT":"0.00002234","COUNTRY_CODE":"US","CLASSIFICATION_TYPE":"U","ARG_OF_PERICENTER":"73.3755","BSTAR":"0.00016882000000"},{"CLASSIFICATION_TYPE":"U","BSTAR":"0.00053432000000","ARG_OF_PERICENTER":"74.9214","COUNTRY_CODE":"US","LAUNCH_DATE":"2021-05-04","ECCENTRICITY":"0.00014160","MEAN_MOTION_DOT":"0.00007686","MEAN_ANOMALY":"285.1932","MEAN_MOTION_DDOT":"0.0000000000000","INCLINATION":"53.0542","CENTER_NAME":"EARTH","REF_FRAME":"TEME","ELEMENT_SET_NO":"999","REV_AT_EPOCH":"7809","RA_OF_ASC_NODE":"228.9507","APOAPSIS":"548.199","FILE":"3590320","MEAN_MOTION":"15.06398593","RCS_SIZE":"LARGE","GP_ID":"214086391","OBJECT_NAME":"STARLINK-2636","SEMIMAJOR_AXIS":"6925.353","PERIAPSIS":"546.237","TIME_SYSTEM":"UTC","OBJECT_ID":"2021-038E","DECAY_DATE":null,"NORAD_CAT_ID":"48357","EPOCH":"2022-10-03T03:56:46.130784","TLE_LINE2":"2 48357  53.0542 228.9507 0001416  74.9214 285.1932 15.06398593 78093","TLE_LINE1":"1 48357U 21038E   22276.16442281  .00007686  00000-0  53432-3 0  9995","SITE":"AFETR","PERIOD":"95.592","EPHEMERIS_TYPE":"0","OBJECT_TYPE":"PAYLOAD","MEAN_ELEMENT_THEORY":"SGP4"},{"LAUNCH_DATE":"2021-05-04","ECCENTRICITY":"0.00015990","MEAN_MOTION_DOT":"0.00008897","COUNTRY_CODE":"US","ARG_OF_PERICENTER":"68.4572","BSTAR":"0.00061510000000","CLASSIFICATION_TYPE":"U","CENTER_NAME":"EARTH","INCLINATION":"53.0544","MEAN_MOTION_DDOT":"0.0000000000000","MEAN_ANOMALY":"291.6587","TIME_SYSTEM":"UTC","SEMIMAJOR_AXIS":"6925.289","PERIAPSIS":"546.047","RCS_SIZE":"LARGE","OBJECT_NAME":"STARLINK-2624","GP_ID":"214095779","MEAN_MOTION":"15.06419472","RA_OF_ASC_NODE":"227.1551","APOAPSIS":"548.261","FILE":"3590526","ELEMENT_SET_NO":"999","REV_AT_EPOCH":"7873","REF_FRAME":"TEME","OBJECT_TYPE":"PAYLOAD","MEAN_ELEMENT_THEORY":"SGP4","EPHEMERIS_TYPE":"0","SITE":"AFETR","PERIOD":"95.591","TLE_LINE1":"1 48358U 21038F   22276.55607602  .00008897  00000-0  61510-3 0  9990","TLE_LINE2":"2 48358  53.0544 227.1551 0001599  68.4572 291.6587 15.06419472 78732","NORAD_CAT_ID":"48358","EPOCH":"2022-10-03T13:20:44.968128","DECAY_DATE":null,"OBJECT_ID":"2021-038F"},{"CENTER_NAME":"EARTH","INCLINATION":"53.0537","MEAN_MOTION_DDOT":"0.0000000000000","MEAN_ANOMALY":"285.6672","MEAN_MOTION_DOT":"0.00017692","LAUNCH_DATE":"2021-05-04","ECCENTRICITY":"0.00016400","COUNTRY_CODE":"US","ARG_OF_PERICENTER":"74.4497","BSTAR":"0.00120320000000","CLASSIFICATION_TYPE":"U","MEAN_ELEMENT_THEORY":"SGP4","OBJECT_TYPE":"PAYLOAD","EPHEMERIS_TYPE":"0","PERIOD":"95.591","SITE":"AFETR","TLE_LINE1":"1 48359U 21038G   22276.35334485  .00017692  00000-0  12032-2 0  9992","TLE_LINE2":"2 48359  53.0537 228.0714 0001640  74.4497 285.6672 15.06413151 78114","NORAD_CAT_ID":"48359","EPOCH":"2022-10-03T08:28:48.995040","DECAY_DATE":null,"OBJECT_ID":"2021-038G","TIME_SYSTEM":"UTC","PERIAPSIS":"546.038","SEMIMAJOR_AXIS":"6925.308","OBJECT_NAME":"STARLINK-2628","GP_ID":"214087887","RCS_SIZE":"LARGE","MEAN_MOTION":"15.06413151","FILE":"3590320","APOAPSIS":"548.309","RA_OF_ASC_NODE":"228.0714","REV_AT_EPOCH":"7811","ELEMENT_SET_NO":"999","REF_FRAME":"TEME"},{"BSTAR":"0.00009044900000","ARG_OF_PERICENTER":"81.1341","CLASSIFICATION_TYPE":"U","COUNTRY_CODE":"US","LAUNCH_DATE":"2021-05-04","ECCENTRICITY":"0.00013320","MEAN_MOTION_DOT":"0.00001066","MEAN_ANOMALY":"278.9799","MEAN_MOTION_DDOT":"0.0000000000000","CENTER_NAME":"EARTH","INCLINATION":"53.0546","REV_AT_EPOCH":"7819","ELEMENT_SET_NO":"999","FILE":"3590585","RA_OF_ASC_NODE":"225.7083","APOAPSIS":"548.099","REF_FRAME":"TEME","PERIAPSIS":"546.254","SEMIMAJOR_AXIS":"6925.311","TIME_SYSTEM":"UTC","MEAN_MOTION":"15.06412133","OBJECT_NAME":"STARLINK-2622","GP_ID":"214118395","RCS_SIZE":"LARGE","NORAD_CAT_ID":"48360","EPOCH":"2022-10-03T21:07:48.869472","TLE_LINE2":"2 48360  53.0546 225.7083 0001332  81.1341 278.9799 15.06412133 78192","OBJECT_ID":"2021-038H","DECAY_DATE":null,"EPHEMERIS_TYPE":"0","OBJECT_TYPE":"PAYLOAD","MEAN_ELEMENT_THEORY":"SGP4","TLE_LINE1":"1 48360U 21038H   22276.88042673  .00001066  00000-0  90449-4 0  9995","PERIOD":"95.591","SITE":"AFETR"},{"CENTER_NAME":"EARTH","INCLINATION":"53.0545","MEAN_ANOMALY":"271.1493","MEAN_MOTION_DDOT":"0.0000000000000","COUNTRY_CODE":"US","LAUNCH_DATE":"2021-05-04","MEAN_MOTION_DOT":"0.00006685","ECCENTRICITY":"0.00014490","BSTAR":"0.00046711000000","ARG_OF_PERICENTER":"88.9662","CLASSIFICATION_TYPE":"U","EPHEMERIS_TYPE":"0","OBJECT_TYPE":"PAYLOAD","MEAN_ELEMENT_THEORY":"SGP4","TLE_LINE1":"1 48361U 21038J   22276.87674440  .00006685  00000-0  46711-3 0  9992","SITE":"AFETR","PERIOD":"95.591","EPOCH":"2022-10-03T21:02:30.716160","NORAD_CAT_ID":"48361","TLE_LINE2":"2 48361  53.0545 225.7219 0001449  88.9662 271.1493 15.06412283 78780","OBJECT_ID":"2021-038J","DECAY_DATE":null,"SEMIMAJOR_AXIS":"6925.311","PERIAPSIS":"546.172","TIME_SYSTEM":"UTC","MEAN_MOTION":"15.06412283","RCS_SIZE":"LARGE","GP_ID":"214093073","OBJECT_NAME":"STARLINK-2591","ELEMENT_SET_NO":"999","REV_AT_EPOCH":"7878","APOAPSIS":"548.179","RA_OF_ASC_NODE":"225.7219","FILE":"3590438","REF_FRAME":"TEME"},{"ARG_OF_PERICENTER":"80.8472","BSTAR":"0.00046272000000","CLASSIFICATION_TYPE":"U","LAUNCH_DATE":"2021-05-04","ECCENTRICITY":"0.00015920","MEAN_MOTION_DOT":"0.00006620","COUNTRY_CODE":"US","MEAN_MOTION_DDOT":"0.0000000000000","MEAN_ANOMALY":"279.2697","CENTER_NAME":"EARTH","INCLINATION":"53.0522","RA_OF_ASC_NODE":"227.1343","APOAPSIS":"548.279","FILE":"3590585","ELEMENT_SET_NO":"999","REV_AT_EPOCH":"7815","REF_FRAME":"TEME","TIME_SYSTEM":"UTC","SEMIMAJOR_AXIS":"6925.311","PERIAPSIS":"546.074","RCS_SIZE":"LARGE","GP_ID":"214117400","OBJECT_NAME":"STARLINK-2578","MEAN_MOTION":"15.06412166","TLE_LINE2":"2 48362  53.0522 227.1343 0001592  80.8472 279.2697 15.06412166 78155","NORAD_CAT_ID":"48362","EPOCH":"2022-10-03T13:52:36.554304","DECAY_DATE":null,"OBJECT_ID":"2021-038K","MEAN_ELEMENT_THEORY":"SGP4","OBJECT_TYPE":"PAYLOAD","EPHEMERIS_TYPE":"0","SITE":"AFETR","PERIOD":"95.591","TLE_LINE1":"1 48362U 21038K   22276.57820086  .00006620  00000-0  46272-3 0  9990"}];
